NORAD_CAT_ID,OBJECT_NAME,OBJECT_TYPE,EPOCH,MEAN_MOTION,ECCENTRICITY,INCLINATION,RA_OF_ASC_NODE,ARG_OF_PERICENTER,MEAN_ANOMALY,BSTAR,MEAN_MOTION_DOT,MEAN_MOTION_DDOT,TLE_LINE0,TLE_LINE1,TLE_LINE2,SEMIMAJOR_AXIS,PERIOD,APOGEE,PERIGEE,DECAYED
53749.0,STARLINK-4680,PAYLOAD,2023-10-18 01:41:11,15.0883667,0.0001555,53.2173,226.1206,83.8846,276.2324,-9.2543e-05,-1.76e-05,0.0,0 STARLINK-4680,1 53749U 22107BB  23291.07026752 -.00001760  00000-0 -92543-4 0  9999,2 53749  53.2173 226.1206 0001555  83.8846 276.2324 15.08836670 62708,6917.891,95.438,540.831,538.68,0.0
53749.0,STARLINK-4680,PAYLOAD,2023-10-18 04:51:57,15.08839604,0.0001593,53.2176,225.5256,78.4595,281.6576,-1.2301e-05,-4.84e-06,0.0,0 STARLINK-4680,1 53749U 22107BB  23291.20274683 -.00000484  00000-0 -12301-4 0  9998,2 53749  53.2176 225.5256 0001593  78.4595 281.6576 15.08839604 61946,6917.882,95.438,540.849,538.645,0.0
53749.0,STARLINK-4680,PAYLOAD,2023-10-18 12:48:52,15.08843279,0.0001609,53.2176,224.0383,78.77,281.3473,0.00011331,1.516e-05,0.0,0 STARLINK-4680,1 53749U 22107BB  23291.53394623  .00001516  00000-0  11331-3 0  9997,2 53749  53.2176 224.0383 0001609  78.7700 281.3473 15.08843279 62778,6917.87,95.437,540.848,538.622,0.0
53749.0,STARLINK-4680,PAYLOAD,2023-10-19 04:42:44,15.08855838,0.0001438,53.2181,221.0643,86.6764,273.4392,0.00052776,8.125e-05,0.0,0 STARLINK-4680,1 53749U 22107BB  23292.19634327  .00008125  00000-0  52776-3 0  9999,2 53749  53.2181 221.0643 0001438  86.6764 273.4392 15.08855838 62099,6917.832,95.437,540.692,538.702,0.0
53749.0,STARLINK-4680,PAYLOAD,2023-10-20 01:22:44,15.08854612,0.0001756,53.2178,217.1977,109.1937,250.9245,0.00037702,5.72e-05,0.0,0 STARLINK-4680,1 53749U 22107BB  23293.05746034  .00005720  00000-0  37702-3 0  9994,2 53749  53.2178 217.1977 0001756 109.1937 250.9245 15.08854612 62228,6917.836,95.437,540.915,538.486,0.0
53749.0,STARLINK-4680,PAYLOAD,2023-10-20 18:51:59,15.0883903,0.0001918,53.2175,213.9291,100.9251,259.1957,5.1232e-05,5.27e-06,0.0,0 STARLINK-4680,1 53749U 22107BB  23293.78611084  .00000527  00000-0  51232-4 0  9995,2 53749  53.2175 213.9291 0001918 100.9251 259.1957 15.08839030 62336,6917.883,95.438,541.075,538.422,0.0
53749.0,STARLINK-4680,PAYLOAD,2023-10-20 22:02:46,15.08830884,0.0001544,53.2175,213.3332,104.4942,255.6222,-6.701e-06,-3.95e-06,0.0,0 STARLINK-4680,1 53749U 22107BB  23293.91859005 -.00000395  00000-0 -67010-5 0  9994,2 53749  53.2175 213.3332 0001544 104.4942 255.6222 15.08830884 63130,6917.908,95.438,540.841,538.705,0.0
53749.0,STARLINK-4680,PAYLOAD,2023-10-21 01:13:32,15.08831,0.0001475,53.2169,212.7377,98.2145,261.9015,-4.8816e-05,-1.065e-05,0.0,0 STARLINK-4680,1 53749U 22107BB  23294.05107104 -.00001065  00000-0 -48816-4 0  9993,2 53749  53.2169 212.7377 0001475  98.2145 261.9015 15.08831000 63156,6917.908,95.438,540.793,538.753,0.0
53749.0,STARLINK-4680,PAYLOAD,2023-10-21 21:53:32,15.08856906,0.0001262,53.217,208.8799,90.0303,270.0834,0.00091609,0.00014328,0.0,0 STARLINK-4680,1 53749U 22107BB  23294.91218584  .00014328  00000-0  91609-3 0  9994,2 53749  53.2170 208.8799 0001262  90.0303 270.0834 15.08856906 63288,6917.829,95.436,540.567,538.821,0.0
53749.0,STARLINK-4680,PAYLOAD,2023-10-22 04:15:04,15.08891165,0.0001314,53.2168,207.6839,85.852,274.2622,0.0011935,0.00018784,0.0,0 STARLINK-4680,1 53749U 22107BB  23295.17713569  .00018784  00000-0  11935-2 0  9999,2 53749  53.2168 207.6839 0001314  85.8520 274.2622 15.08891165 62543,6917.724,95.434,540.498,538.68,0.0
53749.0,STARLINK-4680,PAYLOAD,2023-10-22 21:44:19,15.08832228,0.0003267,53.2159,204.4117,133.2849,226.8416,0.0010492,0.00016447,0.0,0 STARLINK-4680,1 53749U 22107BB  23295.90578680  .00016447  00000-0  10492-2 0  9994,2 53749  53.2159 204.4117 0003267 133.2849 226.8416 15.08832228 63436,6917.904,95.438,542.029,537.509,0.0
53749.0,STARLINK-4680,PAYLOAD,2023-10-23 00:55:06,15.08813502,0.0001507,53.2176,203.8212,69.1983,290.9171,0.0006648,0.00010301,0.0,0 STARLINK-4680,1 53749U 22107BB  23296.03827492  .00010301  00000-0  66480-3 0  9999,2 53749  53.2176 203.8212 0001507  69.1983 290.9171 15.08813502 62674,6917.961,95.439,540.869,538.784,0.0
53749.0,STARLINK-4680,PAYLOAD,2023-10-23 21:35:08,15.08844877,0.0001477,53.2176,199.9547,67.8274,292.2875,0.0010487,0.00016444,0.0,0 STARLINK-4680,1 53749U 22107BB  23296.89939980  .00016444  00000-0  10487-2 0  9998,2 53749  53.2176 199.9547 0001477  67.8274 292.2875 15.08844877 63580,6917.865,95.437,540.752,538.709,0.0
53749.0,STARLINK-4680,PAYLOAD,2023-10-24 03:56:40,15.08855406,0.000152,53.2174,198.7648,68.9612,291.1543,0.001043,0.00016357,0.0,0 STARLINK-4680,1 53749U 22107BB  23297.16435662  .00016357  00000-0  10430-2 0  9998,2 53749  53.2174 198.7648 0001520  68.9612 291.1543 15.08855406 62842,6917.833,95.437,540.75,538.647,0.0
53749.0,STARLINK-4680,PAYLOAD,2023-10-24 10:18:12,15.08851237,0.0001555,53.2167,197.5732,62.5852,297.5298,0.00055142,8.501e-05,0.0,0 STARLINK-4680,1 53749U 22107BB  23297.42931631  .00008501  00000-0  55142-3 0  9996,2 53749  53.2167 197.5732 0001555  62.5852 297.5298 15.08851237 62888,6917.846,95.437,540.787,538.635,0.0
53749.0,STARLINK-4680,PAYLOAD,2023-10-25 21:16:41,15.08846235,0.0001592,53.217,191.0351,85.5857,274.5317,0.00014867,2.079e-05,0.0,0 STARLINK-4680,1 53749U 22107BB  23298.88659268  .00002079  00000-0  14867-3 0  9993,2 53749  53.2170 191.0351 0001592  85.5857 274.5317 15.08846235 63104,6917.861,95.437,540.828,538.625,0.0
53749.0,STARLINK-4680,PAYLOAD,2023-10-26 02:02:50,15.0884884,0.0001475,53.2167,190.142,84.2361,275.8799,0.00018535,2.664e-05,0.0,0 STARLINK-4680,1 53749U 22107BB  23299.08531115  .00002664  00000-0  18535-3 0  9992,2 53749  53.2167 190.1420 0001475  84.2361 275.8799 15.08848840 63914,6917.853,95.437,540.739,538.698,0.0
53749.0,STARLINK-4680,PAYLOAD,2023-10-26 22:42:51,15.08845666,0.000153,53.2165,186.2762,81.9318,278.1848,0.00019514,2.819e-05,0.0,0 STARLINK-4680,1 53749U 22107BB  23299.94643231  .00002819  00000-0  19514-3 0  9990,2 53749  53.2165 186.2762 0001530  81.9318 278.1848 15.08845666 64044,6917.863,95.437,540.787,538.67,0.0
53749.0,STARLINK-4680,PAYLOAD,2023-10-27 01:53:37,15.08853873,0.0001472,53.2164,185.6813,85.1777,274.9383,0.00043714,6.679e-05,0.0,0 STARLINK-4680,1 53749U 22107BB  23300.07890838  .00006679  00000-0  43714-3 0  9991,2 53749  53.2164 185.6813 0001472  85.1777 274.9383 15.08853873 63285,6917.838,95.437,540.721,538.685,0.0
53749.0,STARLINK-4680,PAYLOAD,2023-10-27 09:50:33,15.08844372,0.0001449,53.2162,184.1942,90.5349,269.5809,0.00027462,4.086e-05,0.0,0 STARLINK-4680,1 53749U 22107BB  23300.41011143  .00004086  00000-0  27462-3 0  9995,2 53749  53.2162 184.1942 0001449  90.5349 269.5809 15.08844372 63332,6917.867,95.437,540.734,538.73,0.0
53749.0,STARLINK-4680,PAYLOAD,2023-10-27 22:33:38,15.08842453,0.0001418,53.2168,181.8126,105.2622,254.8527,0.00010986,1.461e-05,0.0,0 STARLINK-4680,1 53749U 22107BB  23300.94003142  .00001461  00000-0  10986-3 0  9990,2 53749  53.2168 181.8126 0001418 105.2622 254.8527 15.08842453 64197,6917.873,95.437,540.719,538.757,0.0
53749.0,STARLINK-4680,PAYLOAD,2023-10-28 09:41:21,15.08836895,0.0001591,53.2167,179.7322,98.7572,261.36,6.608e-05,7.64e-06,0.0,0 STARLINK-4680,1 53749U 22107BB  23301.40371667  .00000764  00000-0  66080-4 0  9994,2 53749  53.2167 179.7322 0001591  98.7572 261.3600 15.08836895 63481,6917.89,95.438,540.856,538.654,0.0
53749.0,STARLINK-4680,PAYLOAD,2023-10-28 22:24:26,15.08837752,0.0001637,53.2168,177.3546,96.7062,263.4116,4.7714e-05,4.71e-06,0.0,0 STARLINK-4680,1 53749U 22107BB  23301.93363899  .00000471  00000-0  47714-4 0  9998,2 53749  53.2168 177.3546 0001637  96.7062 263.4116 15.08837752 64341,6917.887,95.438,540.885,538.62,0.0
53749.0,STARLINK-4680,PAYLOAD,2023-10-29 20:39:50,15.08853653,0.000167,53.2173,173.1918,96.0245,264.0937,0.00050324,7.733e-05,0.0,0 STARLINK-4680,1 53749U 22107BB  23302.86099561  .00007733  00000-0  50324-3 0  9991,2 53749  53.2173 173.1918 0001670  96.0245 264.0937 15.08853653 63702,6917.839,95.437,540.859,538.548,0.0
53749.0,STARLINK-4680,PAYLOAD,2023-10-29 22:15:13,15.08859323,0.0001508,53.2166,172.8945,94.1748,265.9416,0.00065201,0.00010109,0.0,0 STARLINK-4680,1 53749U 22107BB  23302.92723380  .00010109  00000-0  65201-3 0  9992,2 53749  53.2166 172.8945 0001508  94.1748 265.9416 15.08859323 64496,6917.821,95.436,540.73,538.643,0.0
53749.0,STARLINK-4680,PAYLOAD,2023-10-30 01:25:59,15.08864616,0.0001568,53.2168,172.2998,93.092,267.0252,0.00083824,0.00013087,0.0,0 STARLINK-4680,1 53749U 22107BB  23303.05971258  .00013087  00000-0  83824-3 0  9995,2 53749  53.2168 172.2998 0001568  93.0920 267.0252 15.08864616 63734,6917.805,95.436,540.755,538.585,0.0
53749.0,STARLINK-4680,PAYLOAD,2023-10-30 18:55:14,15.08838648,0.0001483,53.2163,169.0286,86.0647,274.0515,8.5424e-05,1.072e-05,0.0,0 STARLINK-4680,1 53749U 22107BB  23303.78835874  .00001072  00000-0  85424-4 0  9998,2 53749  53.2163 169.0286 0001483  86.0647 274.0515 15.08838648 63845,6917.885,95.438,540.775,538.724,0.0
53749.0,STARLINK-4680,PAYLOAD,2023-10-31 07:38:19,15.08840268,0.0001333,53.216,166.649,84.4793,275.6351,0.00053211,8.191e-05,0.0,0 STARLINK-4680,1 53749U 22107BB  23304.31828050  .00008191  00000-0  53211-3 0  9993,2 53749  53.2160 166.6490 0001333  84.4793 275.6351 15.08840268 64702,6917.88,95.438,540.667,538.822,0.0
53749.0,STARLINK-4680,PAYLOAD,2023-10-31 20:21:24,15.08839688,0.0001503,53.2167,164.2715,100.3774,259.7388,0.00032924,4.956e-05,0.0,0 STARLINK-4680,1 53749U 22107BB  23304.84820210  .00004956  00000-0  32924-3 0  9994,2 53749  53.2167 164.2715 0001503 100.3774 259.7388 15.08839688 64009,6917.881,95.438,540.786,538.707,0.0
53749.0,STARLINK-4680,PAYLOAD,2023-10-31 21:56:47,15.08841433,0.0001503,53.2166,163.9752,105.0143,255.1016,0.00039034,5.93e-05,0.0,0 STARLINK-4680,1 53749U 22107BB  23304.91444174  .00005930  00000-0  39034-3 0  9995,2 53749  53.2166 163.9752 0001503 105.0143 255.1016 15.08841433 64792,6917.876,95.437,540.781,538.701,0.0
